{
    "links": {
        "self": "http://www.neowsapp.com/rest/v1/neo/3989209?api_key=iIulBulltgU6a56xZRHN4H3l9WmuAYTsLGpBGhQ2"
    },
    "id": "3989209",
    "neo_reference_id": "3989209",
    "name": "(2020 BJ9)",
    "designation": "2020 BJ9",
    "nasa_jpl_url": "http://ssd.jpl.nasa.gov/sbdb.cgi?sstr=3989209",
    "absolute_magnitude_h": 25.031,
    "estimated_diameter": {
        "kilometers": {
            "estimated_diameter_min": 0.0262032389,
            "estimated_diameter_max": 0.0585922234
        },
        "meters": {
            "estimated_diameter_min": 26.2032389117,
            "estimated_diameter_max": 58.5922234371
        },
        "miles": {
            "estimated_diameter_min": 0.0162819328,
            "estimated_diameter_max": 0.0364075085
        },
        "feet": {
            "estimated_diameter_min": 85.9686343509,
            "estimated_diameter_max": 192.2317103414
        }
    },
    "is_potentially_hazardous_asteroid": false,
    "close_approach_data": [
        {
            "close_approach_date": "2018-04-30",
            "close_approach_date_full": "2018-Apr-30 15:15",
            "epoch_date_close_approach": 1525101300000,
            "relative_velocity": {
                "kilometers_per_second": "10.8473941855",
                "kilometers_per_hour": "39050.6190679656",
                "miles_per_hour": "24264.5360536478"
            },
            "miss_distance": {
                "astronomical": "0.191207962",
                "lunar": "74.379897218",
                "kilometers": "28604303.84224094",
                "miles": "17773890.221327372"
            },
            "orbiting_body": "Earth"
        },
        {
            "close_approach_date": "2020-02-12",
            "close_approach_date_full": "2020-Feb-12 00:20",
            "epoch_date_close_approach": 1581466800000,
            "relative_velocity": {
                "kilometers_per_second": "7.8988525905",
                "kilometers_per_hour": "28435.8693257514",
                "miles_per_hour": "17668.9433596593"
            },
            "miss_distance": {
                "astronomical": "0.0688577924",
                "lunar": "26.7856812436",
                "kilometers": "10300979.075942188",
                "miles": "6400731.5919226744"
            },
            "orbiting_body": "Earth"
        },
        {
            "close_approach_date": "2022-01-15",
            "close_approach_date_full": "2022-Jan-15 16:03",
            "epoch_date_close_approach": 1642262580000,
            "relative_velocity": {
                "kilometers_per_second": "19.4565853761",
                "kilometers_per_hour": "70043.7073540187",
                "miles_per_hour": "43522.4358278346"
            },
            "miss_distance": {
                "astronomical": "0.4530991834",
                "lunar": "176.2555823426",
                "kilometers": "67782672.735379358",
                "miles": "42118199.7908888204"
            },
            "orbiting_body": "Earth"
        },
        {
            "close_approach_date": "2117-05-13",
            "close_approach_date_full": "2117-May-13 06:57",
            "epoch_date_close_approach": 4650332220000,
            "relative_velocity": {
                "kilometers_per_second": "15.1929165067",
                "kilometers_per_hour": "54694.4994239443",
                "miles_per_hour": "33985.0349337281"
            },
            "miss_distance": {
                "astronomical": "0.3265232089",
                "lunar": "127.0175282621",
                "kilometers": "48847176.557005043",
                "miles": "30352228.0610058734"
            },
            "orbiting_body": "Earth"
        },
        {
            "close_approach_date": "2121-01-29",
            "close_approach_date_full": "2121-Jan-29 15:37",
            "epoch_date_close_approach": 4767608220000,
            "relative_velocity": {
                "kilometers_per_second": "13.0296348495",
                "kilometers_per_hour": "46906.6854583717",
                "miles_per_hour": "29145.9901949533"
            },
            "miss_distance": {
                "astronomical": "0.236865162",
                "lunar": "92.140548018",
                "kilometers": "35434523.71240494",
                "miles": "22017992.047030572"
            },
            "orbiting_body": "Earth"
        }
    ],
    "orbital_data": {
        "orbit_id": "5",
        "orbit_determination_date": "2020-02-22 10:48:16",
        "first_observation_date": "2020-01-19",
        "last_observation_date": "2020-02-21",
        "data_arc_in_days": 33,
        "observations_used": 26,
        "orbit_uncertainty": "7",
        "minimum_orbit_intersection": ".0192531",
        "jupiter_tisserand_invariant": "4.362",
        "epoch_osculation": "2459000.5",
        "eccentricity": ".3632390385675641",
        "semi_major_axis": "1.554883748096991",
        "inclination": "4.666056644789796",
        "ascending_node_longitude": "145.2591824614179",
        "orbital_period": "708.1826999605282",
        "perihelion_distance": ".9900892703539091",
        "perihelion_argument": "27.831834764382",
        "aphelion_distance": "2.119678225840072",
        "perihelion_time": "2458915.249912096293",
        "mean_anomaly": "43.33631935240042",
        "mean_motion": ".5083433978549111",
        "equinox": "J2000",
        "orbit_class": {
            "orbit_class_type": "APO",
            "orbit_class_description": "Near-Earth asteroid orbits which cross the Earth’s orbit similar to that of 1862 Apollo",
            "orbit_class_range": "a (semi-major axis) > 1.0 AU; q (perihelion) < 1.017 AU"
        }
    },
    "is_sentry_object": false
}